SAR-LUPE 2              
1 31797U 07030A   26193.87902252  .00005876  00000+0  94297-4 0  9993
2 31797  98.1061 301.5761 0004688 210.0933 150.0049 15.53529483 60922
SAPPHIRE                
1 39088U 13009C   26193.81690920  .00000054  00000+0  33749-4 0  9995
2 39088  98.4272  12.6655 0011444 166.7602 193.3887 14.35247212700253
PRAETORIAN SDA_602      
1 65565U 25203A   26193.76016928  .00000031  00000+0  16726-4 0  9998
2 65565  81.3041 347.0897 0007009 123.3019 236.8810 13.83887775 42235
PRAETORIAN SDA_603      
1 65566U 25203B   26193.78858383  .00000154  00000+0  12818-3 0  9993
2 65566  81.3049 346.9855 0010721 120.6998 239.5216 13.83962529 42249
PRAETORIAN SDA_604      
1 65567U 25203C   26193.75222117  .00000037  00000+0  22588-4 0  9997
2 65567  81.3062 347.4708 0006516 126.8228 233.3527 13.83049983 42213
PRAETORIAN SDA_605      
1 65568U 25203D   26193.85684591  .00000015  00000+0  27620-5 0  9996
2 65568  81.3028 347.0163 0009275 118.7817 241.4272 13.83199785 42242
PRAETORIAN SDA_606      
1 65569U 25203E   26193.84201970  .00000030  00000+0  16759-4 0  9999
2 65569  81.3064 347.2672 0007113 121.4771 238.7081 13.83199980 42232
PRAETORIAN SDA_607      
1 65570U 25203F   26193.76102028  .00000136  00000+0  11167-3 0  9990
2 65570  81.3049 346.9652 0009976 120.4014 239.8129 13.83759031 42244
PRAETORIAN SDA_608      
1 65571U 25203G   26193.81595537  .00000036  00000+0  21431-4 0  9993
2 65571  81.3017 347.0787 0007004 125.8322 234.3486 13.83819275 42234
PRAETORIAN SDA_609      
1 65572U 25203H   26193.52447661  .00000104  00000+0  82943-4 0  9997
2 65572  81.3058 347.3272 0007792 120.7003 239.4922 13.84211511 42204
PRAETORIAN SDA_610      
1 65573U 25203J   26189.89209177  .00000045  00000+0  29958-4 0  9992
2 65573  81.3015 350.6711 0007648 134.1093 226.0694 13.83769338 41695
PRAETORIAN SDA_611      
1 65574U 25203K   26193.80588713  .00000311  00000+0  27202-3 0  9990
2 65574  81.3019 347.2313 0006539 128.8829 231.2911 13.83311452 42225
PRAETORIAN SDA_612      
1 65575U 25203L   26193.83577333  .00000139  00000+0  11227-3 0  9998
2 65575  81.3032 346.7266 0010185 120.7218 239.4944 13.85042073 42269
PRAETORIAN SDA_613      
1 65576U 25203M   26193.75034159  .00000037  00000+0  23342-4 0  9993
2 65576  81.3009 347.3000 0006719 120.4894 239.6926 13.82767498 42211
PRAETORIAN SDA_614      
1 65577U 25203N   26193.82979520  .00000025  00000+0  11659-4 0  9997
2 65577  81.3024 346.8170 0008179 118.7616 241.4363 13.84778461 42260
PRAETORIAN SDA_615      
1 65578U 25203P   26193.52390852  .00000123  00000+0  99033-4 0  9991
2 65578  81.3035 347.0807 0010150 120.4624 239.7537 13.84438481 42217
PRAETORIAN SDA_616      
1 65579U 25203Q   26193.80586449  .00000141  00000+0  11792-3 0  9997
2 65579  81.3038 347.3926 0006461 129.2063 230.9667 13.83268913 42228
PRAETORIAN SDA_617      
1 65580U 25203R   26193.82965556  .00000037  00000+0  22586-4 0  9999
2 65580  81.3048 347.2009 0008441 119.1566 241.0435 13.83151947 42233
PRAETORIAN SDA_618      
1 65581U 25203S   26193.85225380  .00000137  00000+0  11196-3 0  9992
2 65581  81.3034 346.7078 0010830 122.7357 237.4845 13.84225795 42263
PRAETORIAN SDA_619      
1 65582U 25203T   26193.75434588  .00000110  00000+0  88762-4 0  9999
2 65582  81.3051 347.1245 0009206 120.3283 239.8785 13.83805828 42866
PRAETORIAN SDA_620      
1 65583U 25203U   26193.78838951  .00000130  00000+0  10776-3 0  9996
2 65583  81.3043 347.1237 0008568 117.2285 242.9745 13.83207712 42236
PRAETORIAN SDA_621      
1 65584U 25203V   26193.75618006  .00000023  00000+0  10115-4 0  9990
2 65584  81.3031 347.0555 0008460 114.6050 245.5989 13.83803640 42239
PRAETORIAN SDA_601      
1 65585U 25203W   26193.81085249  .00000255  00000+0  22171-3 0  9996
2 65585  81.3041 347.3303 0006393 129.7421 230.4299 13.83170228 42222
VICTUS HAZE PUMA        
1 69646U 26142A   26193.87663473  .00002346  00000+0  10869-3 0  9992
2 69646  97.4473  91.2070 0025043 274.5161  85.3213 15.20839035  3579
